[{"OBJECT_NAME":"STARLINK-31195","OBJECT_ID":"2024-012K","EPOCH":"2026-03-08T14:17:25.487232","MEAN_MOTION":15.2759086,"ECCENTRICITY":0.00012135,"INCLINATION":43.0011,"RA_OF_ASC_NODE":171.8589,"ARG_OF_PERICENTER":278.6166,"MEAN_ANOMALY":81.4548,"EPHEMERIS_TYPE":0,"CLASSIFICATION_TYPE":"U","NORAD_CAT_ID":58796,"ELEMENT_SET_NO":999,"REV_AT_EPOCH":12106,"BSTAR":3.7317909e-5,"MEAN_MOTION_DOT":7.65e-6,"MEAN_MOTION_DDOT":0},{"OBJECT_NAME":"DMSP 5D-2 F14 DEB","OBJECT_ID":"1997-012E","EPOCH":"2026-03-09T23:05:42.500544","MEAN_MOTION":15.25086034,"ECCENTRICITY":0.00083151,"INCLINATION":98.7933,"RA_OF_ASC_NODE":208.6058,"ARG_OF_PERICENTER":272.9178,"MEAN_ANOMALY":87.1104,"EPHEMERIS_TYPE":0,"CLASSIFICATION_TYPE":"U","NORAD_CAT_ID":24778,"ELEMENT_SET_NO":999,"REV_AT_EPOCH":51788,"BSTAR":0.0054670036,"MEAN_MOTION_DOT":0.00139299,"MEAN_MOTION_DDOT":0}]
